[{"OBJECT_NAME":"SENTINEL-3A","OBJECT_ID":"2016-011A","EPOCH":"2026-03-09T21:54:08.177760","MEAN_MOTION":14.26741759,"ECCENTRICITY":0.00012494,"INCLINATION":98.6228,"RA_OF_ASC_NODE":137.6961,"ARG_OF_PERICENTER":99.0654,"MEAN_ANOMALY":261.0668,"EPHEMERIS_TYPE":0,"CLASSIFICATION_TYPE":"U","NORAD_CAT_ID":41335,"ELEMENT_SET_NO":999,"REV_AT_EPOCH":52390,"BSTAR":8.2696554e-5,"MEAN_MOTION_DOT":1.57e-6,"MEAN_MOTION_DDOT":0},{"OBJECT_NAME":"COSMOS 2251 DEB","OBJECT_ID":"1993-036GE","EPOCH":"2026-03-09T17:50:10.472064","MEAN_MOTION":14.35279161,"ECCENTRICITY":0.00604065,"INCLINATION":74.0623,"RA_OF_ASC_NODE":320.121,"ARG_OF_PERICENTER":311.6159,"MEAN_ANOMALY":47.9827,"EPHEMERIS_TYPE":0,"CLASSIFICATION_TYPE":"U","NORAD_CAT_ID":33995,"ELEMENT_SET_NO":999,"REV_AT_EPOCH":88767,"BSTAR":0.00087383689,"MEAN_MOTION_DOT":2.529e-5,"MEAN_MOTION_DDOT":0}]
